YAHSAT 1B               
1 38245U 12016A   23136.55396581  .00000123  00000+0  00000+0 0  9993
2 38245   0.0077  94.0130 0002772 337.8683  49.1493  1.00271033 34296
AEHF-2 (USA 235)        
1 38254U 12019A   23136.40743892 -.00000163  00000+0  00000+0 0  9996
2 38254   4.0656  62.0968 0002545 342.6589 241.5926  1.00271321 39546
JCSAT-13                
1 38331U 12023A   23136.63417144 -.00000360  00000+0  00000+0 0  9999
2 38331   0.0078  61.7039 0002191  17.9017 146.7865  1.00270862 40220
VINASAT-2               
1 38332U 12023B   23136.58736925 -.00000333  00000+0  00000+0 0  9995
2 38332   0.0252  49.8523 0002391  23.8525 143.6316  1.00268740 35359
NIMIQ 6                 
1 38342U 12026A   23136.51689448 -.00000176  00000+0  00000+0 0  9994
2 38342   0.0288  66.2143 0002601 340.3686 282.3562  1.00269695 39111
CHINASAT 2A (ZX 2A)     
1 38352U 12028A   23136.61506396 -.00000297  00000+0  00000+0 0  9992
2 38352   0.0501  75.2164 0001349 309.5705 168.9601  1.00272653 40078
INTELSAT 19 (IS-19)     
1 38356U 12030A   23136.56806021 -.00000060  00000+0  00000+0 0  9999
2 38356   0.0191 302.1841 0002843 112.4068 189.9317  1.00272545 39136
ECHOSTAR 17             
1 38551U 12035A   23135.91715862 -.00000080  00000+0  00000+0 0  9993
2 38551   0.0102 108.4319 0001364 309.0859  38.9271  1.00270505 39755
METEOSAT-10 (MSG-3)     
1 38552U 12035B   23136.31997255 -.00000009  00000+0  00000+0 0  9998
2 38552   2.1122  54.9090 0000145  42.6011 251.5104  1.00277780 39545
SES-5                   
1 38652U 12036A   23136.53607074  .00000030  00000+0  00000+0 0  9994
2 38652   0.0476 297.9171 0001978 113.9259  20.1069  1.00271507 33180
TIANLIAN 1-03           
1 38730U 12040A   23135.67889603  .00000121  00000+0  00000+0 0  9991
2 38730   2.8613  87.2908 0008866 349.3420  61.2965  1.00273648 39675
INTELSAT 20 (IS-20)     
1 38740U 12043A   23136.00466212 -.00000030  00000+0  00000+0 0  9990
2 38740   0.0056 285.9383 0001510 266.6320 111.0784  1.00272764 39435
HYLAS 2                 
1 38741U 12043B   23136.57201946  .00000151  00000+0  00000+0 0  9997
2 38741   0.0608  96.0016 0001794 314.6208  60.3685  1.00273432 39547
INTELSAT 21 (IS-21)     
1 38749U 12045A   23136.52351900 -.00000288  00000+0  00000+0 0  9990
2 38749   0.0181 323.7957 0002010  92.1273 308.5195  1.00270822 39214
ASTRA 2F                
1 38778U 12051A   23136.54069047  .00000147  00000+0  00000+0 0  9992
2 38778   0.0374 228.4070 0000483 341.5352 246.8927  1.00273360 29810
GSAT-10                 
1 38779U 12051B   23136.41646503 -.00000169  00000+0  00000+0 0  9992
2 38779   0.0098 259.9183 0001315  74.5158 132.4161  1.00269007 38813
INTELSAT 23 (IS-23)     
1 38867U 12057A   23136.45279361 -.00000288  00000+0  00000+0 0  9996
2 38867   0.0143 249.4482 0001549 149.1283 305.3131  1.00264040 38635
BEIDOU-2 G6             
1 38953U 12059A   23136.55176042 -.00000177  00000+0  00000+0 0  9994
2 38953   1.7561  82.3993 0011069 314.8459 119.4293  1.00269150 38740
LUCH-5B                 
1 38977U 12061A   23136.10674317 -.00000139  00000+0  00000+0 0  9990
2 38977   8.0155  60.0358 0003387  33.6658 161.9829  1.00271464 38865
YAMAL 300K              
1 38978U 12061B   23136.46414066  .00000068  00000+0  00000+0 0  9993
2 38978   0.0133 255.4796 0000934 312.2949  16.1751  1.00272494 38324
STAR ONE C3             
1 38991U 12062A   23136.52011958 -.00000252  00000+0  00000+0 0  9995
2 38991   0.0176 311.7611 0001661 116.8104 277.6375  1.00271959 38441
EUTELSAT 21B            
1 38992U 12062B   23136.38729729  .00000126  00000+0  00000+0 0  9991
2 38992   0.0708 351.5592 0002695  69.6284 333.7000  1.00273174 38524
ECHOSTAR 16             
1 39008U 12065A   23136.37940764 -.00000285  00000+0  00000+0 0  9993
2 39008   0.0156 302.4464 0001348 124.4263 242.0440  1.00269173 38315
CHINASAT 12 (ZX 12)     
1 39017U 12067A   23136.41646502 -.00000210  00000+0  00000+0 0  9991
2 39017   0.0432  97.7451 0002654 313.9320  59.6159  1.00270600 38408
EUTELSAT 70B            
1 39020U 12069A   23136.54905830 -.00000048  00000+0  00000+0 0  9992
2 39020   0.0659   7.7461 0001631 156.8905 337.5376  1.00273141 38202
YAMAL 402               
1 39022U 12070A   23136.23035594  .00000082  00000+0  00000+0 0  9990
2 39022   0.0107 169.7668 0004070 242.6554 319.0860  1.00271899 38294
SKYNET 5D               
1 39034U 12075A   23136.47388748  .00000095  00000+0  00000+0 0  9990
2 39034   0.0709  14.1885 0003472  46.4503  36.6295  1.00273388 37858
MEXSAT 3                
1 39035U 12075B   23136.54312854 -.00000029  00000+0  00000+0 0  9992
2 39035   0.0491  84.7315 0001535 321.6743 268.3071  1.00271825 37872
TDRS 11                 
1 39070U 13004A   23136.57198263  .00000070  00000+0  00000+0 0  9998
2 39070   2.7219 356.9904 0007145  52.0069 216.6738  1.00265944 35380
AMAZONAS 3              
1 39078U 13006A   23136.53174110 -.00000285  00000+0  00000+0 0  9998
2 39078   0.0133 172.5440 0001641 274.6411 277.2258  1.00267956 33595
AZERSPACE 1             
1 39079U 13006B   23136.55396581  .00000129  00000+0  00000+0 0  9995
2 39079   0.0175 321.7399 0002050 130.9788  26.7013  1.00274599 37501
SBIRS GEO-2 (USA 241)   
1 39120U 13011A   23136.38411455 -.00000261  00000+0  00000+0 0  9995
2 39120   2.3207  36.9229 0001958  13.7993 283.3961  1.00271503 37222
EUTELSAT 117 WEST A     
1 39122U 13012A   23136.54154774 -.00000016  00000+0  00000+0 0  9992
2 39122   0.0528  89.9161 0002782 325.0616 257.1760  1.00272055 37123
ANIK G1                 
1 39127U 13014A   23135.91715862 -.00000079  00000+0  00000+0 0  9999
2 39127   0.0557 105.0135 0001231 272.4744  78.7748  1.00272211 36942
CHINASAT 11 (ZX 11)     
1 39157U 13020A   23135.49282008 -.00000296  00000+0  00000+0 0  9994
2 39157   0.0263 142.7452 0001392 238.2484 127.2533  1.00273419 36839
EUTELSAT 7B             
1 39163U 13022A   23136.53641940  .00000044  00000+0  00000+0 0  9993
2 39163   0.0736  20.8923 0005092   8.3760  44.8197  1.00271246 36661
WGS F5 (USA 243)        
1 39168U 13024A   23136.52618657 -.00000288  00000+0  00000+0 0  9999
2 39168   0.0167 282.7574 0000915 297.8298 150.3093  1.00272068 36521
SES-6                   
1 39172U 13026A   23136.50182784 -.00000264  00000+0  00000+0 0  9995
2 39172   0.0237 314.9408 0002217  94.3163 324.8502  1.00270037 36411
IRNSS-1A                
1 39199U 13034A   23132.93382861  .00000087  00000+0  00000+0 0  9996
2 39199  33.1703  80.3983 0018031 184.0294 357.1690  1.00269989 36028
MUOS-2                  
1 39206U 13036A   23136.57154681  .00000062  00000+0  00000+0 0  9991
2 39206   3.0373  32.9233 0051430 177.7158  52.1018  1.00273899 35889
ALPHASAT                
1 39215U 13038A   23136.18158595  .00000129  00000+0  00000+0 0  9992
2 39215   2.8265  10.8886 0001936  57.4761 255.4528  1.00272823 32703
INSAT-3D                
1 39216U 13038B   23136.47972753 -.00000161  00000+0  00000+0 0  9992
2 39216   0.0156 291.2693 0001023 124.0032  73.5123  1.00272082 35770
WGS F6 (USA 244)        
1 39222U 13041A   23136.51797809  .00000086  00000+0  00000+0 0  9990
2 39222   0.0140 301.7172 0000390 300.1510  43.3716  1.00268781 34743
ES'HAIL 1               
1 39233U 13044A   23136.54008032  .00000140  00000+0  00000+0 0  9992
2 39233   0.0560  21.1752 0002159  23.3670  49.3556  1.00271304 35322
GSAT-7                  
1 39234U 13044B   23136.54975562 -.00000081  00000+0  00000+0 0  9999
2 39234   0.0943  96.0153 0005790 188.3666 221.5323  1.00271276 34025
AMOS-4                  
1 39237U 13045A   23136.54801233  .00000003  00000+0  00000+0 0  9999
2 39237   0.0130 294.1396 0003085  99.7388 102.4119  1.00272242 35651
AEHF-3 (USA 246)        
1 39256U 13050A   23136.50416841  .00000131  00000+0  00000+0 0  9991
2 39256   2.4936  73.8722 0051128 188.6512 357.8896  1.00274761 34368
ASTRA 2E                
1 39285U 13056A   23136.25392897  .00000146  00000+0  00000+0 0  9991
2 39285   0.0675 329.1823 0002583  94.7298 289.7401  1.00274971 35125
FM-6                    
1 39360U 13058A   23136.54154674 -.00000020  00000+0  00000+0 0  9990
2 39360   0.0207 302.2755 0000705 315.3339  55.1917  1.00270371 34753
RADUGA-1M 3             
1 39375U 13062A   23136.47031373  .00000153  00000+0  00000+0 0  9999
2 39375   3.0763  85.9815 0001211 227.0534 125.1559  1.00272884 34818
SES-8                   
1 39460U 13071A   23136.55403914 -.00000273  00000+0  00000+0 0  9991
2 39460   0.0229 264.9015 0002679 165.2975  98.2632  1.00270945 33120
INMARSAT 5-F1           
1 39476U 13073A   23135.96091220  .00000023  00000+0  00000+0 0  9999
2 39476   0.0138 302.8402 0000444 227.8287 111.2667  1.00270534 34272
TKSAT-1 (TUPAC KATARI)  
1 39481U 13075A   23136.51767896 -.00000197  00000+0  00000+0 0  9991
2 39481   0.0240  79.0692 0002522 315.1692 298.8808  1.00268246 34283
EXPRESS-AM5             
1 39487U 13077A   23135.28174331 -.00000287  00000+0  00000+0 0  9998
2 39487   0.0177 288.5853 0001305 121.9142  63.6862  1.00268302 35018
GSAT-14                 
1 39498U 14001A   23136.54975562 -.00000080  00000+0  00000+0 0  9994
2 39498   0.0225  81.9974 0002893 221.4269 202.4860  1.00269757 34084
THAICOM 6               
1 39500U 14002A   23136.55071442 -.00000125  00000+0  00000+0 0  9994
2 39500   0.0531 108.7963 0002402 353.9491  48.0010  1.00274855 34152
TDRS 12                 
1 39504U 14004A   23136.51338522 -.00000280  00000+0  00000+0 0  9993
2 39504   3.6358 353.9867 0005023 125.3368 258.5690  1.00269273 32973
ABS-2                   
1 39508U 14006A   23136.54992994 -.00000089  00000+0  00000+0 0  9998
2 39508   0.0178  50.4586 0003492  10.7732  85.6622  1.00269895 33981
ATHENA-FIDUS            
1 39509U 14006B   23136.47092389  .00000150  00000+0  00000+0 0  9998
2 39509   0.0297 102.2859 0001387 315.4641  23.4935  1.00271823 33765
